{
  "type": "FeatureCollection",
  "features": [
    {
      "type": "Feature",
      "properties": {
        "norad_id": 22490,
        "name": "SCD 1",
        "group": "resource",
        "lat": 24.857284760994535,
        "lon": 36.73555643522451,
        "alt_km": 762.7683185266424,
        "timestamp": "2025-12-07T07:31:35.959246+00:00",
        "meta_object_name": "SCD 1",
        "meta_object_id": "1993-009B",
        "meta_epoch": "2025-12-06T15:18:49.694688",
        "meta_mean_motion": 14.45992193,
        "meta_eccentricity": 0.00417417,
        "meta_inclination": 24.9707,
        "meta_ra_of_asc_node": 316.3528,
        "meta_arg_of_pericenter": 260.1107,
        "meta_mean_anomaly": 261.2359,
        "meta_ephemeris_type": 0,
        "meta_classification_type": "U",
        "meta_norad_cat_id": 22490,
        "meta_element_set_no": 999,
        "meta_rev_at_epoch": 73321,
        "meta_bstar": 0.00017593214,
        "meta_mean_motion_dot": 8.3e-06,
        "meta_mean_motion_ddot": 0,
        "tle_line1": "1 22490U 93009B   25340.63807517  .00000830  00000+0  17593-3 0  9997",
        "tle_line2": "2 22490  24.9707 316.3528 0041741 260.1107 261.2359 14.45992193733211"
      },
      "geometry": {
        "type": "Point",
        "coordinates": [
          36.73555643522451,
          24.857284760994535
        ]
      }
    },
    {
      "type": "Feature",
      "properties": {
        "norad_id": 25397,
        "name": "TECHSAT 1B (GO-32)",
        "group": "resource",
        "lat": 77.19034276699645,
        "lon": -79.73421569343127,
        "alt_km": 801.7897602209969,
        "timestamp": "2025-12-07T07:31:35.959274+00:00",
        "meta_object_name": "TECHSAT 1B (GO-32)",
        "meta_object_id": "1998-043D",
        "meta_epoch": "2025-12-06T22:43:09.090336",
        "meta_mean_motion": 14.24374547,
        "meta_eccentricity": 0.00021824,
        "meta_inclination": 98.9913,
        "meta_ra_of_asc_node": 324.0252,
        "meta_arg_of_pericenter": 66.7011,
        "meta_mean_anomaly": 293.4397,
        "meta_ephemeris_type": 0,
        "meta_classification_type": "U",
        "meta_norad_cat_id": 25397,
        "meta_element_set_no": 999,
        "meta_rev_at_epoch": 42396,
        "meta_bstar": 0.00010088811,
        "meta_mean_motion_dot": 1.87e-06,
        "meta_mean_motion_ddot": 0,
        "tle_line1": "1 25397U 98043D   25340.94663299  .00000187  00000+0  10089-3 0  9998",
        "tle_line2": "2 25397  98.9913 324.0252 0002182  66.7011 293.4397 14.24374547423961"
      },
      "geometry": {
        "type": "Point",
        "coordinates": [
          -79.73421569343127,
          77.19034276699645
        ]
      }
    },
    {
      "type": "Feature",
      "properties": {
        "norad_id": 25504,
        "name": "SCD 2",
        "group": "resource",
        "lat": 19.352731324907246,
        "lon": -53.57548202240622,
        "alt_km": 742.9799060049436,
        "timestamp": "2025-12-07T07:31:35.959289+00:00",
        "meta_object_name": "SCD 2",
        "meta_object_id": "1998-060A",
        "meta_epoch": "2025-12-06T23:11:38.511744",
        "meta_mean_motion": 14.45418331,
        "meta_eccentricity": 0.00165973,
        "meta_inclination": 24.9933,
        "meta_ra_of_asc_node": 177.4964,
        "meta_arg_of_pericenter": 251.7936,
        "meta_mean_anomaly": 226.3444,
        "meta_ephemeris_type": 0,
        "meta_classification_type": "U",
        "meta_norad_cat_id": 25504,
        "meta_element_set_no": 999,
        "meta_rev_at_epoch": 43248,
        "meta_bstar": 0.00012678595,
        "meta_mean_motion_dot": 6.36e-06,
        "meta_mean_motion_ddot": 0,
        "tle_line1": "1 25504U 98060A   25340.96641796  .00000636  00000+0  12679-3 0  9993",
        "tle_line2": "2 25504  24.9933 177.4964 0016597 251.7936 226.3444 14.45418331432487"
      },
      "geometry": {
        "type": "Point",
        "coordinates": [
          -53.57548202240622,
          19.352731324907246
        ]
      }
    },
    {
      "type": "Feature",
      "properties": {
        "norad_id": 25757,
        "name": "DLR-TUBSAT",
        "group": "resource",
        "lat": 65.1567688560553,
        "lon": 164.8696101335929,
        "alt_km": 712.670188392759,
        "timestamp": "2025-12-07T07:31:35.959302+00:00",
        "meta_object_name": "DLR-TUBSAT",
        "meta_object_id": "1999-029B",
        "meta_epoch": "2025-12-06T22:44:18.051360",
        "meta_mean_motion": 14.5235422,
        "meta_eccentricity": 0.00135865,
        "meta_inclination": 98.6558,
        "meta_ra_of_asc_node": 325.2826,
        "meta_arg_of_pericenter": 210.9605,
        "meta_mean_anomaly": 149.079,
        "meta_ephemeris_type": 0,
        "meta_classification_type": "U",
        "meta_norad_cat_id": 25757,
        "meta_element_set_no": 999,
        "meta_rev_at_epoch": 40534,
        "meta_bstar": 8.0076711e-05,
        "meta_mean_motion_dot": 2.78e-06,
        "meta_mean_motion_ddot": 0,
        "tle_line1": "1 25757U 99029B   25340.94743115  .00000278  00000+0  80077-4 0  9995",
        "tle_line2": "2 25757  98.6558 325.2826 0013586 210.9605 149.0790 14.52354220405347"
      },
      "geometry": {
        "type": "Point",
        "coordinates": [
          164.8696101335929,
          65.1567688560553
        ]
      }
    },
    {
      "type": "Feature",
      "properties": {
        "norad_id": 25994,
        "name": "TERRA",
        "group": "resource",
        "lat": 9.855535355361361,
        "lon": 31.801384026842307,
        "alt_km": 692.1103423831428,
        "timestamp": "2025-12-07T07:31:35.959315+00:00",
        "meta_object_name": "TERRA",
        "meta_object_id": "1999-068A",
        "meta_epoch": "2025-12-06T22:24:27.942336",
        "meta_mean_motion": 14.6094236,
        "meta_eccentricity": 0.00035044,
        "meta_inclination": 97.9756,
        "meta_ra_of_asc_node": 32.831,
        "meta_arg_of_pericenter": 109.6003,
        "meta_mean_anomaly": 63.375,
        "meta_ephemeris_type": 0,
        "meta_classification_type": "U",
        "meta_norad_cat_id": 25994,
        "meta_element_set_no": 999,
        "meta_rev_at_epoch": 38153,
        "meta_bstar": 0.00020421444,
        "meta_mean_motion_dot": 9.56e-06,
        "meta_mean_motion_ddot": 0,
        "tle_line1": "1 25994U 99068A   25340.93365674  .00000956  00000+0  20421-3 0  9999",
        "tle_line2": "2 25994  97.9756  32.8310 0003504 109.6003  63.3750 14.60942360381531"
      },
      "geometry": {
        "type": "Point",
        "coordinates": [
          31.801384026842307,
          9.855535355361361
        ]
      }
    },
    {
      "type": "Feature",
      "properties": {
        "norad_id": 27004,
        "name": "MAROC-TUBSAT",
        "group": "resource",
        "lat": -32.71909502090707,
        "lon": 156.03258908523324,
        "alt_km": 996.0014562629531,
        "timestamp": "2025-12-07T07:31:35.959328+00:00",
        "meta_object_name": "MAROC-TUBSAT",
        "meta_object_id": "2001-056D",
        "meta_epoch": "2025-12-06T23:29:03.374592",
        "meta_mean_motion": 13.70252467,
        "meta_eccentricity": 0.00190892,
        "meta_inclination": 99.7911,
        "meta_ra_of_asc_node": 149.3225,
        "meta_arg_of_pericenter": 275.4847,
        "meta_mean_anomaly": 199.0217,
        "meta_ephemeris_type": 0,
        "meta_classification_type": "U",
        "meta_norad_cat_id": 27004,
        "meta_element_set_no": 999,
        "meta_rev_at_epoch": 19986,
        "meta_bstar": 3.350814e-05,
        "meta_mean_motion_dot": -1.7e-07,
        "meta_mean_motion_ddot": 0,
        "tle_line1": "1 27004U 01056D   25340.97851128 -.00000017  00000+0  33508-4 0  9991",
        "tle_line2": "2 27004  99.7911 149.3225 0019089 275.4847 199.0217 13.70252467199860"
      },
      "geometry": {
        "type": "Point",
        "coordinates": [
          156.03258908523324,
          -32.71909502090707
        ]
      }
    },
    {
      "type": "Feature",
      "properties": {
        "norad_id": 27424,
        "name": "AQUA",
        "group": "resource",
        "lat": -47.08044333023358,
        "lon": 112.95761025550122,
        "alt_km": 694.4697786854913,
        "timestamp": "2025-12-07T07:31:35.959339+00:00",
        "meta_object_name": "AQUA",
        "meta_object_id": "2002-022A",
        "meta_epoch": "2025-12-06T22:38:08.413152",
        "meta_mean_motion": 14.61788081,
        "meta_eccentricity": 9.064e-05,
        "meta_inclination": 98.403,
        "meta_ra_of_asc_node": 301.7279,
        "meta_arg_of_pericenter": 113.341,
        "meta_mean_anomaly": 325.9574,
        "meta_ephemeris_type": 0,
        "meta_classification_type": "U",
        "meta_norad_cat_id": 27424,
        "meta_element_set_no": 999,
        "meta_rev_at_epoch": 25518,
        "meta_bstar": 0.00043242878,
        "meta_mean_motion_dot": 2.109e-05,
        "meta_mean_motion_ddot": 0,
        "tle_line1": "1 27424U 02022A   25340.94315293  .00002109  00000+0  43243-3 0  9995",
        "tle_line2": "2 27424  98.4030 301.7279 0000906 113.3410 325.9574 14.61788081255182"
      },
      "geometry": {
        "type": "Point",
        "coordinates": [
          112.95761025550122,
          -47.08044333023358
        ]
      }
    }
  ]
}